MEAN_MOTION;ECCENTRICITY;INCLINATION;RA_OF_ASC_NODE;ARG_OF_PERICENTER;MEAN_ANOMALY;BSTAR;MEAN_MOTION_DOT;MEAN_MOTION_DDOT;TYPE
14.32773581;0.0003247;45.0416;51.1287;232.2605;127.7947;7.778E-5;7.3E-7;0;Orbcomm
14.32773654;0.000325;45.0417;49.1633;233.8219;126.2327;7.2916E-5;6.0E-7;0;Orbcomm
14.32773894;0.0003269;45.0418;46.5427;236.0324;124.0212;7.187E-5;5.7E-7;0;Orbcomm
14.32774081;0.0003285;45.0418;44.2498;237.8417;122.2111;7.0012E-5;5.2E-7;0;Orbcomm
14.3277423;0.00033;45.0419;41.9567;239.7535;120.2985;6.624E-5;4.1E-7;0;Orbcomm
14.32774421;0.00033;45.042;39.6639;241.5606;118.4908;6.4744E-5;3.7E-7;0;Orbcomm
14.32774624;0.0003315;45.0421;37.0432;243.6531;116.3975;6.3194E-5;3.3E-7;0;Orbcomm
14.32774624;0.0003315;45.0421;37.0432;243.6531;116.3975;6.3194E-5;3.3E-7;0;Orbcomm
14.32774816;0.0003312;45.0421;35.078;245.2745;114.7757;6.463E-5;3.7E-7;0;Orbcomm
14.32775199;0.0003322;45.0422;30.8196;248.6436;111.4056;6.7867E-5;4.6E-7;0;Orbcomm
14.32775376;0.0003343;45.0422;27.8713;250.7919;109.2566;6.7533E-5;4.5E-7;0;Orbcomm
14.32775641;0.0003333;45.0422;26.2336;252.3086;107.7397;7.4468E-5;6.4E-7;0;Orbcomm
14.32775701;0.0003332;45.0423;23.2854;254.5;105.5479;7.0629E-5;5.3E-7;0;Orbcomm
14.32776327;0.0003327;45.0421;21.6478;255.3382;104.7096;7.4774E-5;6.5E-7;0;Orbcomm
14.32775783;0.0003254;45.0433;17.3878;259.6747;100.3733;-7.7524E-5;-3.54E-6;0;Orbcomm
14.32776239;0.0003326;45.0424;13.7861;261.7675;98.2795;2.3654E-5;-7.6E-7;0;Orbcomm
14.3277635;0.0003318;45.0424;12.4759;262.776;97.2709;3.6419E-5;-4.1E-7;0;Orbcomm
14.32776599;0.0003302;45.0424;9.2002;265.3005;94.7465;4.7731E-5;-1.0E-7;0;Orbcomm
14.32776685;0.0003294;45.0424;7.2349;266.8792;93.1678;4.3113E-5;-2.2E-7;0;Orbcomm
14.3277686;0.0003279;45.0425;4.2868;269.0727;90.9744;4.138E-5;-2.7E-7;0;Orbcomm
14.32777031;0.0003274;45.0425;1.3388;271.4701;88.5771;4.0395E-5;-3.0E-7;0;Orbcomm
14.32777151;0.0003268;45.0425;359.701;272.5754;87.4718;4.1807E-5;-2.6E-7;0;Orbcomm
14.3277741;0.0003265;45.0425;356.753;274.8736;85.1738;4.6981E-5;-1.2E-7;0;Orbcomm
14.32777648;0.0003244;45.0425;355.1153;275.9508;84.0969;5.457E-5;9.0E-8;0;Orbcomm
14.32777704;0.0003246;45.0425;354.7877;276.2247;83.8229;5.6662E-5;1.5E-7;0;Orbcomm
14.32777797;0.0003239;45.0425;354.1327;276.7734;83.2744;5.9904E-5;2.4E-7;0;Orbcomm
14.32778068;0.0003232;45.0424;351.1845;278.9897;81.0584;6.5119E-5;3.8E-7;0;Orbcomm
14.3277835;0.0003217;45.0424;349.2193;280.582;79.4664;7.2824E-5;5.9E-7;0;Orbcomm
14.32778545;0.0003217;45.0424;347.2539;282.0891;77.9595;7.5583E-5;6.7E-7;0;Orbcomm
14.32778766;0.0003202;45.0423;345.616;283.2916;76.7573;8.056E-5;8.1E-7;0;Orbcomm
14.32779441;0.000313;45.0422;341.0302;286.7423;73.308;9.5451E-5;1.22E-6;0;Orbcomm
14.32779752;0.0003103;45.0421;338.0821;288.8745;71.1765;9.709E-5;1.26E-6;0;Orbcomm
14.3277991;0.0003075;45.042;336.4442;289.9841;70.0675;9.6018E-5;1.23E-6;0;Orbcomm
14.32780437;0.0003026;45.0419;331.8582;293.2242;66.8286;9.5333E-5;1.21E-6;0;Orbcomm
14.32780472;0.000302;45.0419;331.5307;293.4579;66.595;9.508E-5;1.21E-6;0;Orbcomm
14.32780941;0.0002964;45.0418;326.9447;296.7434;63.3109;8.9759E-5;1.06E-6;0;Orbcomm
14.32781372;0.0002912;45.0417;322.3586;300.3421;59.7138;8.4111E-5;9.0E-7;0;Orbcomm
14.32781376;0.0002902;45.0417;322.0311;300.5757;59.4803;8.1372E-5;8.3E-7;0;Orbcomm
14.32781417;0.0002902;45.0417;321.7035;300.9325;59.1236;8.1867E-5;8.4E-7;0;Orbcomm
14.32782103;0.0002823;45.0415;314.4969;306.3165;53.7421;7.9982E-5;7.9E-7;0;Orbcomm
14.32782132;0.0002816;45.0415;314.1693;306.5204;53.5383;7.974E-5;7.8E-7;0;Orbcomm
14.32782306;0.0002799;45.0415;312.5315;307.9346;52.1248;8.1313E-5;8.3E-7;0;Orbcomm
14.32782566;0.0002759;45.0414;309.5833;310.0625;49.9979;8.1811E-5;8.4E-7;0;Orbcomm
14.32782693;0.000274;45.0414;308.273;311.1085;48.9525;8.2517E-5;8.6E-7;0;Orbcomm
14.3278272;0.0002735;45.0413;307.9454;311.4073;48.6539;8.2826E-5;8.7E-7;0;Orbcomm
14.32783181;0.0002646;45.0412;303.3593;314.5186;45.5444;8.7191E-5;9.9E-7;0;Orbcomm
14.32783245;0.0002634;45.0411;302.7041;314.9534;45.1099;8.7644E-5;1.0E-6;0;Orbcomm
14.32783491;0.0002569;45.041;298.7731;317.8781;42.1868;8.2494E-5;8.6E-7;0;Orbcomm
14.32783773;0.0002519;45.0409;295.8248;319.915;40.151;8.2086E-5;8.5E-7;0;Orbcomm
14.32783989;0.0002481;45.0408;293.8594;321.5321;38.5349;8.2649E-5;8.6E-7;0;Orbcomm
14.32784456;0.0002407;45.0407;289.2732;325.1974;34.8715;8.1967E-5;8.5E-7;0;Orbcomm
14.32784456;0.0002407;45.0407;289.2732;325.1974;34.8715;8.1967E-5;8.5E-7;0;Orbcomm
14.32784992;0.0002326;45.0406;284.3594;329.1826;30.8884;8.1933E-5;8.4E-7;0;Orbcomm
14.32784992;0.0002326;45.0406;284.3594;329.1826;30.8884;8.1933E-5;8.4E-7;0;Orbcomm
14.32785295;0.0002261;45.0406;281.411;331.029;29.043;8.0878E-5;8.2E-7;0;Orbcomm
14.32785783;0.0002177;45.0406;277.1524;334.1088;25.965;8.3854E-5;9.0E-7;0;Orbcomm
14.32785942;0.0002141;45.0406;275.187;335.904;24.1707;8.224E-5;8.5E-7;0;Orbcomm
14.32786379;0.0002067;45.0407;270.9284;339.2065;20.8697;8.4275E-5;9.1E-7;0;Orbcomm
14.3278641;0.0002057;45.0407;270.6008;339.4545;20.6219;8.406E-5;9.0E-7;0;Orbcomm
14.32786665;0.0002004;45.0407;267.325;342.1611;17.9165;8.2327E-5;8.6E-7;0;Orbcomm
14.32786958;0.0001918;45.0406;262.7389;345.9627;14.1166;7.6562E-5;7.0E-7;0;Orbcomm
14.32787088;0.0001919;45.0406;261.4289;347.8992;12.1808;7.7607E-5;7.3E-7;0;Orbcomm
14.32787448;0.0001814;45.0406;256.5151;351.9822;8.0996;7.2379E-5;5.8E-7;0;Orbcomm
14.32787623;0.0001744;45.0406;253.5667;354.267;5.8156;6.6737E-5;4.3E-7;0;Orbcomm
14.3278797;0.0001654;45.0405;248.9806;358.5252;1.559;6.2008E-5;3.0E-7;0;Orbcomm
14.32788054;0.000161;45.0405;247.3429;0.0328;0.0519;5.8339E-5;2.0E-7;0;Orbcomm
14.32788326;0.0001538;45.0405;244.067;2.7043;357.3812;5.7105E-5;1.6E-7;0;Orbcomm
14.32788485;0.0001515;45.0405;242.7567;4.1147;355.9712;6.0467E-5;2.5E-7;0;Orbcomm
14.32788966;0.0001418;45.0405;237.8428;9.0507;351.0365;6.6947E-5;4.3E-7;0;Orbcomm
14.32789239;0.0001345;45.0406;234.8945;12.1353;347.9526;7.0367E-5;5.3E-7;0;Orbcomm
14.32789534;0.0001277;45.0407;231.6188;15.412;344.6765;7.5079E-5;6.6E-7;0;Orbcomm
14.32789747;0.0001262;45.0406;230.3084;16.9851;343.1038;8.1535E-5;8.3E-7;0;Orbcomm
14.32790075;0.0001202;45.0407;226.7051;20.9911;339.0985;8.6488E-5;9.7E-7;0;Orbcomm
14.32790125;0.0001188;45.0407;226.0499;21.94;338.1497;8.5939E-5;9.5E-7;0;Orbcomm
14.32790414;0.0001108;45.0407;221.4639;28.1218;331.9688;8.1591E-5;8.3E-7;0;Orbcomm
14.32790428;0.0001098;45.0407;221.1363;28.4802;331.6105;8.0328E-5;8.0E-7;0;Orbcomm
14.32790782;0.000101;45.0406;215.8952;35.7907;324.3007;7.1886E-5;5.7E-7;0;Orbcomm
14.32790828;0.0001002;45.0406;215.2402;36.4004;323.691;7.108E-5;5.5E-7;0;Orbcomm
14.32791137;9.23E-5;45.0406;210.3266;44.2299;315.8622;6.0825E-5;2.6E-7;0;Orbcomm
14.3279148;8.45E-5;45.0405;205.7406;52.4461;307.6463;5.5769E-5;1.2E-7;0;Orbcomm
14.32791683;8.01E-5;45.0404;203.1199;56.8837;303.2087;5.4867E-5;1.0E-7;0;Orbcomm
14.32791894;7.8E-5;45.0403;201.1546;61.1534;298.9391;5.7672E-5;1.8E-7;0;Orbcomm
14.32792238;7.37E-5;45.0403;197.2236;68.9758;291.1168;6.1784E-5;2.9E-7;0;Orbcomm
14.32792693;7.0E-5;45.0401;192.3099;79.1862;280.9064;7.148E-5;5.6E-7;0;Orbcomm
14.32793104;6.77E-5;45.04;187.7238;89.6936;270.3989;7.9653E-5;7.8E-7;0;Orbcomm
14.32793337;6.62E-5;45.04;184.448;97.4044;262.6878;8.0332E-5;8.0E-7;0;Orbcomm
14.32793425;6.63E-5;45.0399;183.1377;100.7073;259.3848;8.0209E-5;8.0E-7;0;Orbcomm
14.32793823;6.69E-5;45.0399;178.224;112.1812;247.9105;7.8856E-5;7.6E-7;0;Orbcomm
14.32793861;6.7E-5;45.0399;177.8964;112.8218;247.2699;7.9052E-5;7.7E-7;0;Orbcomm
14.32794321;6.85E-5;45.0398;172.9827;123.8634;236.2277;7.575E-5;6.7E-7;0;Orbcomm
14.32794726;7.15E-5;45.0398;168.3966;133.755;226.3356;6.9754E-5;5.1E-7;0;Orbcomm
14.32794933;7.3E-5;45.0398;166.1034;138.7368;221.3533;6.7728E-5;4.5E-7;0;Orbcomm
14.32795128;7.52E-5;45.0398;164.138;142.2048;217.8852;6.7257E-5;4.4E-7;0;Orbcomm
14.32795558;7.97E-5;45.0397;159.5519;150.4749;209.6143;6.6418E-5;4.2E-7;0;Orbcomm
14.32795957;8.46E-5;45.0396;154.9657;157.8672;202.2211;6.7795E-5;4.6E-7;0;Orbcomm
14.32796204;8.82E-5;45.0396;152.0173;162.5483;197.5394;6.9276E-5;5.0E-7;0;Orbcomm
14.32796362;9.07E-5;45.0395;150.0518;164.8704;195.217;7.0933E-5;5.4E-7;0;Orbcomm
14.32796701;9.7E-5;45.0395;145.4655;170.703;189.3835;7.2603E-5;5.9E-7;0;Orbcomm
14.32797197;0.0001026;45.0394;140.8792;175.8399;184.2456;8.0847E-5;8.2E-7;0;Orbcomm
14.32797333;0.0001076;45.0395;137.6033;179.4227;180.6621;7.1625E-5;5.6E-7;0;Orbcomm
14.32797626;0.0001118;45.0396;133.9998;183.2563;176.8276;7.0054E-5;5.2E-7;0;Orbcomm
14.32797743;0.0001152;45.0396;132.362;184.5544;175.5292;6.7752E-5;4.6E-7;0;Orbcomm
14.32798052;0.000116;45.0396;131.3792;185.3949;174.6885;8.0752E-5;8.1E-7;0;Orbcomm
14.32798299;0.0001227;45.0398;127.1206;189.4029;170.6795;6.9545E-5;5.0E-7;0;Orbcomm
14.32798747;0.0001292;45.04;122.2068;193.7511;166.33;6.7154E-5;4.4E-7;0;Orbcomm
14.32799259;0.000136;45.0401;117.6206;197.7304;162.3495;7.1955E-5;5.7E-7;0;Orbcomm
14.32799505;0.0001411;45.0403;114.0172;200.5472;159.5318;6.8577E-5;4.8E-7;0;Orbcomm
14.32799925;0.0001466;45.0404;108.4483;204.3346;155.7432;6.8426E-5;4.7E-7;0;Orbcomm
14.32800153;0.0001514;45.0405;103.8621;207.3183;152.7584;6.2651E-5;3.1E-7;0;Orbcomm
14.32800258;0.000156;45.0406;100.2586;209.4607;150.6152;5.3734E-5;7.0E-8;0;Orbcomm
14.3280044;0.0001606;45.0407;96.6552;212.1621;147.9128;4.9459E-5;-5.0E-8;0;Orbcomm
14.32800502;0.0001626;45.0408;94.6897;213.149;146.9255;4.5159E-5;-1.7E-7;0;Orbcomm
14.32800793;0.0001678;45.041;90.1036;216.0882;143.9852;4.3176E-5;-2.2E-7;0;Orbcomm
14.32801081;0.0001727;45.0412;85.8451;218.7866;141.2857;4.411E-5;-2.0E-7;0;Orbcomm
14.32801113;0.0001729;45.0412;85.5175;218.9281;141.1441;4.4644E-5;-1.8E-7;0;Orbcomm
14.32801445;0.0001777;45.0414;80.9315;221.7599;138.3112;4.9011E-5;-6.0E-8;0;Orbcomm
14.32801642;0.0001804;45.0416;77.9833;223.5267;136.5437;5.1437E-5;1.0E-8;0;Orbcomm
14.32801766;0.000182;45.0416;76.0179;224.6075;135.4625;5.3306E-5;6.0E-8;0;Orbcomm
14.328019;0.0001849;45.0417;73.3973;226.1581;133.9113;5.3812E-5;7.0E-8;0;Orbcomm
14.3280204;0.0001878;45.0418;68.8114;228.3324;131.7362;5.0195E-5;-3.0E-8;0;Orbcomm
